HAWK-11C                
1 62381U 24247E   26068.51221537  .00009223  00000+0  33290-3 0  9992
2 62381  45.0045 114.8762 0005900 329.7040  30.3502 15.28848020 67743
STARLINK-35547          
1 66119U 25237F   26068.24399068  .00015805  00000+0  54465-3 0  9990
2 66119  53.1620  41.6006 0001250  92.6754 267.4390 15.30197249 22545
